{"type": "FeatureCollection", "features": [ {"type": "Feature", "properties": {"norad_id": 67064, "name": "HULIANWANG DIGUI 16F", "group": "last-30-days", "lat": -7.7365265288586595, "lon": -19.319257444875316, "alt_km": 805.5950866072671, "timestamp": "2025-12-18T15:47:09.962655+00:00", "meta": {"OBJECT_NAME": "HULIANWANG DIGUI 16F", "OBJECT_ID": "2025-295F", "EPOCH": "2025-12-18T00:41:45.177504", "MEAN_MOTION": 14.25947801, "ECCENTRICITY": 0.0012069, "INCLINATION": 50.0037, "RA_OF_ASC_NODE": 349.8867, "ARG_OF_PERICENTER": 265.6344, "MEAN_ANOMALY": 94.3191, "EPHEMERIS_TYPE": 0, "CLASSIFICATION_TYPE": "U", "NORAD_CAT_ID": 67064, "ELEMENT_SET_NO": 999, "REV_AT_EPOCH": 87, "BSTAR": -0.00021481981, "MEAN_MOTION_DOT": -6.76e-06, "MEAN_MOTION_DDOT": 0}, "tle": {"line1": "1 67064U 25295F   25352.02899511 -.00000676  00000+0 -21482-3 0  9998", "line2": "2 67064  50.0037 349.8867 0012069 265.6344  94.3191 14.25947801   876"}}, "geometry": {"type": "Point", "coordinates": [-19.319257444875316, -7.7365265288586595]}}, {"type": "Feature", "properties": {"norad_id": 67065, "name": "HULIANWANG DIGUI 16G", "group": "last-30-days", "lat": -7.653083403226275, "lon": -19.249561241554854, "alt_km": 804.6539813701374, "timestamp": "2025-12-18T15:47:09.962665+00:00", "meta": {"OBJECT_NAME": "HULIANWANG DIGUI 16G", "OBJECT_ID": "2025-295G", "EPOCH": "2025-12-18T07:25:23.432736", "MEAN_MOTION": 14.25953062, "ECCENTRICITY": 0.00122778, "INCLINATION": 50.0012, "RA_OF_ASC_NODE": 348.7008, "ARG_OF_PERICENTER": 272.6141, "MEAN_ANOMALY": 87.3368, "EPHEMERIS_TYPE": 0, "CLASSIFICATION_TYPE": "U", "NORAD_CAT_ID": 67065, "ELEMENT_SET_NO": 999, "REV_AT_EPOCH": 91, "BSTAR": 0.00014600224, "MEAN_MOTION_DOT": 1.9e-06, "MEAN_MOTION_DDOT": 0}, "tle": {"line1": "1 67065U 25295G   25352.30929899  .00000190  00000+0  14600-3 0  9996", "line2": "2 67065  50.0012 348.7008 0012277 272.6141  87.3368 14.25953062   918"}}, "geometry": {"type": "Point", "coordinates": [-19.249561241554854, -7.653083403226275]}}, {"type": "Feature", "properties": {"norad_id": 67066, "name": "HULIANWANG DIGUI 16H", "group": "last-30-days", "lat": -4.970291090230896, "lon": -16.966285253579393, "alt_km": 804.8924275251084, "timestamp": "2025-12-18T15:47:09.962675+00:00", "meta": {"OBJECT_NAME": "HULIANWANG DIGUI 16H", "OBJECT_ID": "2025-295H", "EPOCH": "2025-12-18T07:24:27.321120", "MEAN_MOTION": 14.26096025, "ECCENTRICITY": 0.00114338, "INCLINATION": 50.0014, "RA_OF_ASC_NODE": 348.6966, "ARG_OF_PERICENTER": 269.8098, "MEAN_ANOMALY": 90.1506, "EPHEMERIS_TYPE": 0, "CLASSIFICATION_TYPE": "U", "NORAD_CAT_ID": 67066, "ELEMENT_SET_NO": 999, "REV_AT_EPOCH": 91, "BSTAR": 0.00015339678, "MEAN_MOTION_DOT": 2.09e-06, "MEAN_MOTION_DDOT": 0}, "tle": {"line1": "1 67066U 25295H   25352.30864955  .00000209  00000+0  15340-3 0  9991", "line2": "2 67066  50.0014 348.6966 0011433 269.8098  90.1506 14.26096025   919"}}, "geometry": {"type": "Point", "coordinates": [-16.966285253579393, -4.970291090230896]}}, {"type": "Feature", "properties": {"norad_id": 67067, "name": "HULIANWANG DIGUI 16J", "group": "last-30-days", "lat": -2.526516783704798, "lon": -14.900568662239255, "alt_km": 804.0290380835158, "timestamp": "2025-12-18T15:47:09.962685+00:00", "meta": {"OBJECT_NAME": "HULIANWANG DIGUI 16J", "OBJECT_ID": "2025-295J", "EPOCH": "2025-12-18T07:23:36.834144", "MEAN_MOTION": 14.2625056, "ECCENTRICITY": 0.00108763, "INCLINATION": 50.0053, "RA_OF_ASC_NODE": 348.7006, "ARG_OF_PERICENTER": 273.7373, "MEAN_ANOMALY": 86.2298, "EPHEMERIS_TYPE": 0, "CLASSIFICATION_TYPE": "U", "NORAD_CAT_ID": 67067, "ELEMENT_SET_NO": 999, "REV_AT_EPOCH": 91, "BSTAR": -0.00030080445, "MEAN_MOTION_DOT": -8.87e-06, "MEAN_MOTION_DDOT": 0}, "tle": {"line1": "1 67067U 25295J   25352.30806521 -.00000887  00000+0 -30080-3 0  9999", "line2": "2 67067  50.0053 348.7006 0010876 273.7373  86.2298 14.26250560   919"}}, "geometry": {"type": "Point", "coordinates": [-14.900568662239255, -2.526516783704798]}}, {"type": "Feature", "properties": {"norad_id": 67069, "name": "XIWANG-5 02", "group": "last-30-days", "lat": 11.33833899720329, "lon": -125.36679010240739, "alt_km": 514.6129514292006, "timestamp": "2025-12-18T15:47:09.962695+00:00", "meta": {"OBJECT_NAME": "XIWANG-5 02", "OBJECT_ID": "2025-296A", "EPOCH": "2025-12-17T16:56:59.195616", "MEAN_MOTION": 15.16768165, "ECCENTRICITY": 0.00145859, "INCLINATION": 41.3523, "RA_OF_ASC_NODE": 73.2396, "ARG_OF_PERICENTER": 59.9158, "MEAN_ANOMALY": 300.3108, "EPHEMERIS_TYPE": 0, "CLASSIFICATION_TYPE": "U", "NORAD_CAT_ID": 67069, "ELEMENT_SET_NO": 999, "REV_AT_EPOCH": 71, "BSTAR": 0.00053476127, "MEAN_MOTION_DOT": 0.00010539, "MEAN_MOTION_DDOT": 0}, "tle": {"line1": "1 67069U 25296A   25351.70624069  .00010539  00000+0  53476-3 0  9997", "line2": "2 67069  41.3523  73.2396 0014585  59.9158 300.3108 15.16768165   717"}}, "geometry": {"type": "Point", "coordinates": [-125.36679010240739, 11.33833899720329]}}, {"type": "Feature", "properties": {"norad_id": 67070, "name": "DEAR-5", "group": "last-30-days", "lat": 8.805352157069185, "lon": -122.33775573959448, "alt_km": 515.3340223408941, "timestamp": "2025-12-18T15:47:09.962706+00:00", "meta": {"OBJECT_NAME": "DEAR-5", "OBJECT_ID": "2025-296B", "EPOCH": "2025-12-18T02:24:55.721952", "MEAN_MOTION": 15.16876304, "ECCENTRICITY": 0.00162233, "INCLINATION": 41.3551, "RA_OF_ASC_NODE": 70.9837, "ARG_OF_PERICENTER": 63.894, "MEAN_ANOMALY": 296.3549, "EPHEMERIS_TYPE": 0, "CLASSIFICATION_TYPE": "U", "NORAD_CAT_ID": 67070, "ELEMENT_SET_NO": 999, "REV_AT_EPOCH": 76, "BSTAR": 0.00027561524, "MEAN_MOTION_DOT": 5.347e-05, "MEAN_MOTION_DDOT": 0}, "tle": {"line1": "1 67070U 25296B   25352.10064493  .00005347  00000+0  27562-3 0  9991", "line2": "2 67070  41.3551  70.9837 0016223  63.8940 296.3549 15.16876304   761"}}, "geometry": {"type": "Point", "coordinates": [-122.33775573959448, 8.805352157069185]}}, {"type": "Feature", "properties": {"norad_id": 67071, "name": "KZ-11 R/B", "group": "last-30-days", "lat": 27.599781927554638, "lon": -146.39686098943855, "alt_km": 951.1657880847861, "timestamp": "2025-12-18T15:47:09.962717+00:00", "meta": {"OBJECT_NAME": "KZ-11 R/B", "OBJECT_ID": "2025-296C", "EPOCH": "2025-12-18T07:07:45.775776", "MEAN_MOTION": 14.83254648, "ECCENTRICITY": 0.06940751, "INCLINATION": 41.3333, "RA_OF_ASC_NODE": 72.079, "ARG_OF_PERICENTER": 352.8765, "MEAN_ANOMALY": 6.2578, "EPHEMERIS_TYPE": 0, "CLASSIFICATION_TYPE": "U", "NORAD_CAT_ID": 67071, "ELEMENT_SET_NO": 999, "REV_AT_EPOCH": 77, "BSTAR": 0.00052718859, "MEAN_MOTION_DOT": 0.05649325, "MEAN_MOTION_DDOT": 5.952766e-06}, "tle": {"line1": "1 67071U 25296C   25352.29705759  .05649325  59528-5  52719-3 0  9991", "line2": "2 67071  41.3333  72.0790 0694075 352.8765   6.2578 14.83254648   779"}}, "geometry": {"type": "Point", "coordinates": [-146.39686098943855, 27.599781927554638]}}, {"type": "Feature", "properties": {"norad_id": 67072, "name": "ELECTRON R/B", "group": "last-30-days", "lat": -41.013884422108866, "lon": 147.08619288973364, "alt_km": 360.1132355706977, "timestamp": "2025-12-18T15:47:09.962729+00:00", "meta": {"OBJECT_NAME": "ELECTRON R/B", "OBJECT_ID": "2025-297A", "EPOCH": "2025-12-18T06:52:26.724288", "MEAN_MOTION": 15.84290953, "ECCENTRICITY": 0.02142477, "INCLINATION": 97.4756, "RA_OF_ASC_NODE": 140.1222, "ARG_OF_PERICENTER": 212.3335, "MEAN_ANOMALY": 146.4657, "EPHEMERIS_TYPE": 0, "CLASSIFICATION_TYPE": "U", "NORAD_CAT_ID": 67072, "ELEMENT_SET_NO": 999, "REV_AT_EPOCH": 66, "BSTAR": 0.0014083341, "MEAN_MOTION_DOT": 0.02262304, "MEAN_MOTION_DDOT": 2.220172e-06}, "tle": {"line1": "1 67072U 25297A   25352.28642042  .02262304  22202-5  14083-2 0  9992", "line2": "2 67072  97.4756 140.1222 0214247 212.3335 146.4657 15.84290953   664"}}, "geometry": {"type": "Point", "coordinates": [147.08619288973364, -41.013884422108866]}}, {"type": "Feature", "properties": {"norad_id": 67073, "name": "RAISE-4", "group": "last-30-days", "lat": -82.50842372590319, "lon": -128.8907756022405, "alt_km": 545.2871805090972, "timestamp": "2025-12-18T15:47:09.962741+00:00", "meta": {"OBJECT_NAME": "RAISE-4", "OBJECT_ID": "2025-297B", "EPOCH": "2025-12-18T06:37:28.117632", "MEAN_MOTION": 15.07171328, "ECCENTRICITY": 0.00114887, "INCLINATION": 97.4852, "RA_OF_ASC_NODE": 139.6762, "ARG_OF_PERICENTER": 300.7259, "MEAN_ANOMALY": 59.2836, "EPHEMERIS_TYPE": 0, "CLASSIFICATION_TYPE": "U", "NORAD_CAT_ID": 67073, "ELEMENT_SET_NO": 999, "REV_AT_EPOCH": 62, "BSTAR": 0.00026693992, "MEAN_MOTION_DOT": 3.96e-05, "MEAN_MOTION_DDOT": 0}, "tle": {"line1": "1 67073U 25297B   25352.27601988  .00003960  00000+0  26694-3 0  9993", "line2": "2 67073  97.4852 139.6762 0011488 300.7259  59.2836 15.07171328   628"}}, "geometry": {"type": "Point", "coordinates": [-128.8907756022405, -82.50842372590319]}}, {"type": "Feature", "properties": {"norad_id": 67074, "name": "ELECTRON KICK STAGE R/B", "group": "last-30-days", "lat": -41.43465327351685, "lon": 147.05006377941623, "alt_km": 357.60046250998676, "timestamp": "2025-12-18T15:47:09.962751+00:00", "meta": {"OBJECT_NAME": "ELECTRON KICK STAGE R/B", "OBJECT_ID": "2025-297C", "EPOCH": "2025-12-17T22:59:01.518144", "MEAN_MOTION": 15.5544686, "ECCENTRICITY": 0.02039141, "INCLINATION": 97.4819, "RA_OF_ASC_NODE": 139.6549, "ARG_OF_PERICENTER": 250.5377, "MEAN_ANOMALY": 107.3746, "EPHEMERIS_TYPE": 0, "CLASSIFICATION_TYPE": "U", "NORAD_CAT_ID": 67074, "ELEMENT_SET_NO": 999, "REV_AT_EPOCH": 59, "BSTAR": 0.0014072523, "MEAN_MOTION_DOT": 0.00251676, "MEAN_MOTION_DDOT": 1.8562841e-05}, "tle": {"line1": "1 67074U 25297C   25351.95765646  .00251676  18563-4  14073-2 0  9994", "line2": "2 67074  97.4819 139.6549 0203914 250.5377 107.3746 15.55446860   595"}}, "geometry": {"type": "Point", "coordinates": [147.05006377941623, -41.43465327351685]}}]}